{
  "type": "FeatureCollection",
  "features": [
    {
      "type": "Feature",
      "properties": {
        "norad_id": 66633,
        "name": "STARLINK-35948",
        "group": "last-30-days",
        "lat": -8.929999809822547,
        "lon": 8.934918879952344,
        "alt_km": 420.6089004760679,
        "timestamp": "2025-12-13T18:50:03.173459+00:00",
        "meta_object_name": "STARLINK-35948",
        "meta_object_id": "2025-271S",
        "meta_epoch": "2025-12-13T06:00:02.000160",
        "meta_mean_motion": 15.49315427,
        "meta_eccentricity": 9.198e-05,
        "meta_inclination": 53.1593,
        "meta_ra_of_asc_node": 184.7269,
        "meta_arg_of_pericenter": 107.2932,
        "meta_mean_anomaly": 339.5706,
        "meta_ephemeris_type": 0,
        "meta_classification_type": "U",
        "meta_norad_cat_id": 66633,
        "meta_element_set_no": 999,
        "meta_rev_at_epoch": 432,
        "meta_bstar": 0.00013125899,
        "meta_mean_motion_dot": 6.86e-05,
        "meta_mean_motion_ddot": 0,
        "tle_line1": "1 66633U 25271S   25347.25002315  .00006860  00000+0  13126-3 0  9995",
        "tle_line2": "2 66633  53.1593 184.7269 0000919 107.2932 339.5706 15.49315427  4325"
      },
      "geometry": {
        "type": "Point",
        "coordinates": [
          8.934918879952344,
          -8.929999809822547
        ]
      }
    },
    {
      "type": "Feature",
      "properties": {
        "norad_id": 66634,
        "name": "STARLINK-35967",
        "group": "last-30-days",
        "lat": -10.40383631496258,
        "lon": 10.077320764452399,
        "alt_km": 421.32091999252225,
        "timestamp": "2025-12-13T18:50:03.173470+00:00",
        "meta_object_name": "STARLINK-35967",
        "meta_object_id": "2025-271T",
        "meta_epoch": "2025-12-13T06:00:02.000160",
        "meta_mean_motion": 15.49385712,
        "meta_eccentricity": 9.638e-05,
        "meta_inclination": 53.1599,
        "meta_ra_of_asc_node": 184.7228,
        "meta_arg_of_pericenter": 92.6002,
        "meta_mean_anomaly": 356.1725,
        "meta_ephemeris_type": 0,
        "meta_classification_type": "U",
        "meta_norad_cat_id": 66634,
        "meta_element_set_no": 999,
        "meta_rev_at_epoch": 425,
        "meta_bstar": -0.0031340017,
        "meta_mean_motion_dot": -0.00171441,
        "meta_mean_motion_ddot": 0,
        "tle_line1": "1 66634U 25271T   25347.25002315 -.00171441  00000+0 -31340-2 0  9993",
        "tle_line2": "2 66634  53.1599 184.7228 0000963  92.6002 356.1725 15.49385712  4253"
      },
      "geometry": {
        "type": "Point",
        "coordinates": [
          10.077320764452399,
          -10.40383631496258
        ]
      }
    },
    {
      "type": "Feature",
      "properties": {
        "norad_id": 66635,
        "name": "STARLINK-35955",
        "group": "last-30-days",
        "lat": -11.936642006323735,
        "lon": 11.281315615368207,
        "alt_km": 421.30189306925513,
        "timestamp": "2025-12-13T18:50:03.173480+00:00",
        "meta_object_name": "STARLINK-35955",
        "meta_object_id": "2025-271U",
        "meta_epoch": "2025-12-13T06:00:02.000160",
        "meta_mean_motion": 15.49341647,
        "meta_eccentricity": 1.288e-05,
        "meta_inclination": 53.1599,
        "meta_ra_of_asc_node": 184.7193,
        "meta_arg_of_pericenter": 204.5934,
        "meta_mean_anomaly": 246.1747,
        "meta_ephemeris_type": 0,
        "meta_classification_type": "U",
        "meta_norad_cat_id": 66635,
        "meta_element_set_no": 999,
        "meta_rev_at_epoch": 432,
        "meta_bstar": -0.0024619243,
        "meta_mean_motion_dot": -0.00135175,
        "meta_mean_motion_ddot": 0,
        "tle_line1": "1 66635U 25271U   25347.25002315 -.00135175  00000+0 -24619-2 0  9999",
        "tle_line2": "2 66635  53.1599 184.7193 0000128 204.5934 246.1747 15.49341647  4325"
      },
      "geometry": {
        "type": "Point",
        "coordinates": [
          11.281315615368207,
          -11.936642006323735
        ]
      }
    },
    {
      "type": "Feature",
      "properties": {
        "norad_id": 66636,
        "name": "STARLINK-35968",
        "group": "last-30-days",
        "lat": -13.406763962987846,
        "lon": 12.451870182259217,
        "alt_km": 421.60150037008134,
        "timestamp": "2025-12-13T18:50:03.173490+00:00",
        "meta_object_name": "STARLINK-35968",
        "meta_object_id": "2025-271V",
        "meta_epoch": "2025-12-13T06:00:02.000160",
        "meta_mean_motion": 15.49365553,
        "meta_eccentricity": 5.748e-05,
        "meta_inclination": 53.1598,
        "meta_ra_of_asc_node": 184.7152,
        "meta_arg_of_pericenter": 59.6246,
        "meta_mean_anomaly": 32.9061,
        "meta_ephemeris_type": 0,
        "meta_classification_type": "U",
        "meta_norad_cat_id": 66636,
        "meta_element_set_no": 999,
        "meta_rev_at_epoch": 432,
        "meta_bstar": -0.0015675753,
        "meta_mean_motion_dot": -0.00086837,
        "meta_mean_motion_ddot": 0,
        "tle_line1": "1 66636U 25271V   25347.25002315 -.00086837  00000+0 -15676-2 0  9993",
        "tle_line2": "2 66636  53.1598 184.7152 0000574  59.6246  32.9061 15.49365553  4322"
      },
      "geometry": {
        "type": "Point",
        "coordinates": [
          12.451870182259217,
          -13.406763962987846
        ]
      }
    },
    {
      "type": "Feature",
      "properties": {
        "norad_id": 66637,
        "name": "STARLINK-35953",
        "group": "last-30-days",
        "lat": -14.879786551110158,
        "lon": 13.64402317025402,
        "alt_km": 421.51040293201913,
        "timestamp": "2025-12-13T18:50:03.173500+00:00",
        "meta_object_name": "STARLINK-35953",
        "meta_object_id": "2025-271W",
        "meta_epoch": "2025-12-13T06:00:02.000160",
        "meta_mean_motion": 15.49253052,
        "meta_eccentricity": 4.524e-05,
        "meta_inclination": 53.1598,
        "meta_ra_of_asc_node": 184.7111,
        "meta_arg_of_pericenter": 67.8143,
        "meta_mean_anomaly": 26.6517,
        "meta_ephemeris_type": 0,
        "meta_classification_type": "U",
        "meta_norad_cat_id": 66637,
        "meta_element_set_no": 999,
        "meta_rev_at_epoch": 432,
        "meta_bstar": 0.001183933,
        "meta_mean_motion_dot": 0.00065824,
        "meta_mean_motion_ddot": 0,
        "tle_line1": "1 66637U 25271W   25347.25002315  .00065824  00000+0  11839-2 0  9992",
        "tle_line2": "2 66637  53.1598 184.7111 0000452  67.8143  26.6517 15.49253052  4326"
      },
      "geometry": {
        "type": "Point",
        "coordinates": [
          13.64402317025402,
          -14.879786551110158
        ]
      }
    },
    {
      "type": "Feature",
      "properties": {
        "norad_id": 66638,
        "name": "STARLINK-35972",
        "group": "last-30-days",
        "lat": -16.38836911989737,
        "lon": 14.887956778922232,
        "alt_km": 421.60301298467766,
        "timestamp": "2025-12-13T18:50:03.173509+00:00",
        "meta_object_name": "STARLINK-35972",
        "meta_object_id": "2025-271X",
        "meta_epoch": "2025-12-13T06:00:02.000160",
        "meta_mean_motion": 15.49256425,
        "meta_eccentricity": 3.941e-05,
        "meta_inclination": 53.1599,
        "meta_ra_of_asc_node": 184.7076,
        "meta_arg_of_pericenter": 73.7827,
        "meta_mean_anomaly": 22.6055,
        "meta_ephemeris_type": 0,
        "meta_classification_type": "U",
        "meta_norad_cat_id": 66638,
        "meta_element_set_no": 999,
        "meta_rev_at_epoch": 432,
        "meta_bstar": 0.0012009208,
        "meta_mean_motion_dot": 0.00066791,
        "meta_mean_motion_ddot": 0,
        "tle_line1": "1 66638U 25271X   25347.25002315  .00066791  00000+0  12009-2 0  9997",
        "tle_line2": "2 66638  53.1599 184.7076 0000394  73.7827  22.6055 15.49256425  4328"
      },
      "geometry": {
        "type": "Point",
        "coordinates": [
          14.887956778922232,
          -16.38836911989737
        ]
      }
    },
    {
      "type": "Feature",
      "properties": {
        "norad_id": 66639,
        "name": "STARLINK-35908",
        "group": "last-30-days",
        "lat": -17.876274590795255,
        "lon": 16.139247657442716,
        "alt_km": 421.7937729890018,
        "timestamp": "2025-12-13T18:50:03.173519+00:00",
        "meta_object_name": "STARLINK-35908",
        "meta_object_id": "2025-271Y",
        "meta_epoch": "2025-12-13T06:00:02.000160",
        "meta_mean_motion": 15.49254974,
        "meta_eccentricity": 4.451e-05,
        "meta_inclination": 53.1598,
        "meta_ra_of_asc_node": 184.7032,
        "meta_arg_of_pericenter": 68.8542,
        "meta_mean_anomaly": 29.4491,
        "meta_ephemeris_type": 0,
        "meta_classification_type": "U",
        "meta_norad_cat_id": 66639,
        "meta_element_set_no": 999,
        "meta_rev_at_epoch": 432,
        "meta_bstar": 0.0012019074,
        "meta_mean_motion_dot": 0.00066843,
        "meta_mean_motion_ddot": 0,
        "tle_line1": "1 66639U 25271Y   25347.25002315  .00066843  00000+0  12019-2 0  9997",
        "tle_line2": "2 66639  53.1598 184.7032 0000445  68.8542  29.4491 15.49254974  4322"
      },
      "geometry": {
        "type": "Point",
        "coordinates": [
          16.139247657442716,
          -17.876274590795255
        ]
      }
    }
  ]
}